STARLINK-1007           
1 44713U 19074A   23165.54170770  .00001281  00000+0  10487-3 0  9992
2 44713  53.0554 351.9653 0000678  75.1160 284.9904 15.06397023198152
STARLINK-1008           
1 44714U 19074B   23165.52054037  .00007213  00000+0  50260-3 0  9992
2 44714  53.0536 352.0656 0001482  98.3017 261.8140 15.06403790198155
STARLINK-1009           
1 44715U 19074C   23165.50948607  .00003723  00000+0  26874-3 0  9992
2 44715  53.0541 352.1159 0002214  82.6274 277.4967 15.06399183198145
STARLINK-1010           
1 44716U 19074D   23165.52790786  .00009324  00000+0  64410-3 0  9999
2 44716  53.0545 352.0325 0001041  78.7924 281.3182 15.06393430198130
STARLINK-1011           
1 44717U 19074E   23165.59239752 -.00013184  00000+0 -86817-3 0  9994
2 44717  53.0554  11.7378 0001198  68.1350 291.9766 15.06386442197888
STARLINK-1012           
1 44718U 19074F   23165.23303598 -.00006438  00000+0 -41383-3 0  9999
2 44718  53.0550 353.3475 0003696  84.0018 276.1392 15.06375625198108
STARLINK-1013           
1 44719U 19074G   23165.50579278 -.00001505  00000+0 -82155-4 0  9993
2 44719  53.0545 352.1255 0001168  76.5115 283.6004 15.06393059199275
STARLINK-1014           
1 44720U 19074H   23165.32422969  .00008168  00000+0  56643-3 0  9991
2 44720  53.0542 352.9294 0001181 124.8373 235.2727 15.06411269198125
STARLINK-1015           
1 44721U 19074J   23165.31412003  .00009581  00000+0  66093-3 0  9999
2 44721  53.0521 352.9902 0001226  93.5154 266.5975 15.06416563198111
STARLINK-1017           
1 44723U 19074L   23165.53159309  .00001777  00000+0  13813-3 0  9993
2 44723  53.0545 352.0146 0000825  84.4547 275.6536 15.06397680198155
STARLINK-1019           
1 44724U 19074M   23165.29569049  .00004761  00000+0  33835-3 0  9995
2 44724  53.0541 353.0778 0000779  97.3156 262.7921 15.06393469198113
STARLINK-1020           
1 44725U 19074N   23165.56660294  .00014962  00000+0  10209-2 0  9993
2 44725  53.0540  11.8515 0001643 122.3751 237.7397 15.06410719197871
STARLINK-1021           
1 44726U 19074P   23165.55739319 -.00000279  00000+0  21804-6 0  9992
2 44726  53.0547 351.9007 0002092  88.8551 271.2678 15.06394770198151
STARLINK-1022           
1 44727U 19074Q   23165.56091766  .00051375  00000+0  29680-3 0  9990
2 44727  53.0529   0.8244 0000969 277.9649  82.1261 15.78138814198044
STARLINK-1024           
1 44729U 19074S   23165.53320424  .00020940  00000+0  40963-3 0  9996
2 44729  53.0203 311.4142 0007267 144.9761 215.1724 15.47388781198676
STARLINK-1026           
1 44731U 19074U   23165.56845346  .00002633  00000+0  19559-3 0  9993
2 44731  53.0541 351.8447 0001416  91.9242 268.1909 15.06398717198156
STARLINK-1027           
1 44732U 19074V   23165.55554985  .00003621  00000+0  26180-3 0  9995
2 44732  53.0553  11.9042 0001307  83.5705 276.5433 15.06404496197870
STARLINK-1028           
1 44733U 19074W   23165.22197915 -.00010045  00000+0 -65660-3 0  9992
2 44733  53.0555 353.4007 0003535  82.5650 277.5740 15.06380410198109
STARLINK-1029           
1 44734U 19074X   23165.43576004  .00009945  00000+0  68542-3 0  9993
2 44734  53.0534 272.4455 0000397 110.5301 249.5730 15.06407990199238
STARLINK-1030           
1 44735U 19074Y   23165.56292873  .00010914  00000+0  75057-3 0  9994
2 44735  53.0542  11.8755 0001327  85.6674 274.4466 15.06394515197874
STARLINK-1031           
1 44736U 19074Z   23165.57766900  .00002529  00000+0  18860-3 0  9995
2 44736  53.0544  11.8058 0001333  75.3282 284.7854 15.06398108197889
STARLINK-1032           
1 44737U 19074AA  23165.58872356  .00000992  00000+0  85492-4 0  9998
2 44737  53.0551  11.7554 0001207 101.2534 258.8591 15.06399536197883
STARLINK-1033           
1 44738U 19074AB  23165.58334491 -.00022498  00000+0 -13370-3 0  9994
2 44738  53.0550 355.6320 0001125 114.1327 214.8242 15.76746800  1309
STARLINK-1034           
1 44739U 19074AC  23165.43127260  .00132374  00000+0  17024-2 0  9995
2 44739  52.9530 304.4648 0003455 237.9316 122.1359 15.58155421198738
STARLINK-1035           
1 44740U 19074AD  23165.58504213  .00009791  00000+0  67538-3 0  9992
2 44740  53.0551  11.7716 0000987  66.7315 293.3778 15.06392345197885
STARLINK-1036           
1 44741U 19074AE  23165.59609638 -.00000445  00000+0 -11016-4 0  9991
2 44741  53.0555  11.7213 0000858  90.5966 269.5122 15.06395460197885
STARLINK-1038           
1 44743U 19074AG  23164.91604023  .00022839  00000+0  15461-2 0  9996
2 44743  53.0557  34.7728 0001183  85.6710 274.4414 15.06426761197674
STARLINK-1039           
1 44744U 19074AH  23165.05978629  .00017037  00000+0  11591-2 0  9993
2 44744  53.0560  34.1281 0001030  79.3736 280.7369 15.06424311197528
STARLINK-1041           
1 44746U 19074AK  23164.91235724  .00022829  00000+0  15454-2 0  9998
2 44746  53.0552  34.7898 0001324  79.1219 280.9919 15.06426579197500
STARLINK-1042           
1 44747U 19074AL  23165.60531560  .00002944  00000+0  21642-3 0  9996
2 44747  53.0550  31.6826 0001162  91.5910 268.5213 15.06399657197619
STARLINK-1043           
1 44748U 19074AM  23165.03767804  .00016435  00000+0  11190-2 0  9992
2 44748  53.0547  34.2277 0001082  82.9689 277.1423 15.06421972197528
STARLINK-1046           
1 44751U 19074AQ  23165.05241454  .00022162  00000+0  15007-2 0  9991
2 44751  53.0557  34.1613 0001293  77.2396 282.8737 15.06432858197528
STARLINK-1047           
1 44752U 19074AR  23165.60347235 -.00000660  00000+0 -25442-4 0  9994
2 44752  53.0549  11.6901 0001203 104.4255 255.6868 15.06396418197881
STARLINK-1048           
1 44753U 19074AS  23165.34360601  .00002934  00000+0  21575-3 0  9994
2 44753  53.0556 352.8514 0000522   8.7101 351.3897 15.06401952198123
STARLINK-1049           
1 44754U 19074AT  23165.51530184 -.00000415  00000+0  14644-5 0  9993
2 44754  53.0490 321.0274 0001060  81.7694 278.3445 15.76723609198588
STARLINK-1052           
1 44757U 19074AW  23165.54818405  .00000400  00000+0  45735-4 0  9991
2 44757  53.0548  11.9350 0001584  82.4434 277.6735 15.06396748197874
STARLINK-1053           
1 44758U 19074AX  23165.03400028  .00023128  00000+0  15651-2 0  9998
2 44758  53.0546  34.3351 0001377  84.3401 275.7745 15.06432881197529
STARLINK-1054           
1 44759U 19074AY  23165.61268775  .00012044  00000+0  82605-3 0  9993
2 44759  53.0546  31.6473 0001314  90.5608 269.5531 15.06400458195251
STARLINK-1055           
1 44760U 19074AZ  23165.02493770  .00035654  00000+0  17969-2 0  9997
2 44760  53.0539  28.2661 0003649 101.9050 258.2353 15.16851707197614
STARLINK-1056           
1 44761U 19074BA  23165.60899527  .00004553  00000+0  32431-3 0  9998
2 44761  53.0552  31.6658 0001336 100.7642 259.3498 15.06405434197612
STARLINK-1057           
1 44762U 19074BB  23165.54449526 -.00001436  00000+0 -77502-4 0  9990
2 44762  53.0552  11.9542 0002066  89.8768 270.2458 15.06397369197876
STARLINK-1058           
1 44763U 19074BC  23165.03305004  .00023001  00000+0  15572-2 0  9994
2 44763  53.0550  34.2431 0001146  91.9714 268.1406 15.06419693197529
STARLINK-1059           
1 44764U 19074BD  23165.35407820  .00007337  00000+0  32956-3 0  9999
2 44764  53.0710 355.6362 0005039  93.4140 266.7433 15.22168446198098
STARLINK-1060           
1 44765U 19074BE  23165.55923886  .00010284  00000+0  70830-3 0  9995
2 44765  53.0544  11.8924 0000910  80.0242 280.0850 15.06397680197870
STARLINK-1061           
1 44766U 19074BF  23165.02661705  .00022069  00000+0  14950-2 0  9991
2 44766  53.0550  34.2810 0000908  88.3828 271.7265 15.06420086197525
STARLINK-1062           
1 44767U 19074BG  23165.01830674  .00026319  00000+0  17777-2 0  9996
2 44767  53.0557  34.3052 0001054  99.5588 260.5520 15.06431678197521
STARLINK-1063           
1 44768U 19074BH  23165.04135124  .00029682  00000+0  20004-2 0  9991
2 44768  53.0547  34.2142 0001212  83.7216 276.3911 15.06451765197538
STARLINK-1067           
1 44771U 19074BL  23165.03030399  .00022590  00000+0  15293-2 0  9997
2 44771  53.0548  34.2621 0001447  85.2832 274.8322 15.06430630197522
STARLINK-1068           
1 44772U 19074BM  23165.55186317 -.00007123  00000+0 -45999-3 0  9991
2 44772  53.0554  11.9254 0000690  13.1960 346.9047 15.06386959197872
STARLINK-1073           
1 44914U 20001A   23165.23670943  .00000641  00000+0  61878-4 0  9990
2 44914  53.0536 153.3328 0000967  78.7934 281.3164 15.06401497189203
STARLINK-1084           
1 44915U 20001B   23165.26619894  .00000219  00000+0  33575-4 0  9996
2 44915  53.0541 153.2045 0001133  84.6258 275.4860 15.06399191189211
STARLINK-1098           
1 44917U 20001D   23165.33625037 -.00000256  00000+0  17264-5 0  9992
2 44917  53.0522 152.8905 0001199  92.0374 268.0752 15.06388696189223
STARLINK-1099           
1 44918U 20001E   23165.35003351  .00001133  00000+0  94929-4 0  9990
2 44918  53.0537 152.8555 0001316  82.9156 277.1983 15.06401952189967
STARLINK-1102           
1 44920U 20001G   23165.36462544  .00006786  00000+0  32091-3 0  9997
2 44920  53.0576 142.3358 0002749  12.1164 347.9897 15.20508642189378
STARLINK-1103           
1 44921U 20001H   23165.44951469  .00004491  00000+0  31996-3 0  9990
2 44921  53.0542 152.3737 0001177  74.4203 285.6916 15.06431056189214
STARLINK-1104           
1 44922U 20001J   23165.35097900  .00000576  00000+0  57528-4 0  9992
2 44922  53.0536 152.8221 0001291  79.3124 280.8011 15.06399090189229
STARLINK-1106           
1 44923U 20001K   23165.32435929  .00007281  00000+0  40449-3 0  9990
2 44923  53.0532 148.2333 0003694  63.6873 296.4499 15.14705337189288
STARLINK-1111           
1 44924U 20001L   23165.36571940  .00000992  00000+0  85451-4 0  9994
2 44924  53.0541 152.7806 0001241  77.9288 282.1840 15.06402593189223
STARLINK-1112           
1 44925U 20001M   23165.31411241  .00000836  00000+0  75005-4 0  9998
2 44925  53.0541 152.9888 0001061  89.6176 270.4934 15.06400912189218
STARLINK-1113           
1 44926U 20001N   23165.37678504  .00000982  00000+0  84803-4 0  9990
2 44926  53.0553 152.7979 0001165  88.7289 271.3833 15.06402444189918
STARLINK-1114           
1 44927U 20001P   23165.39151985  .00000828  00000+0  74464-4 0  9993
